CCSDS_OMM_VERS = 2.0
CREATION_DATE  = 
ORIGINATOR     = 

OBJECT_NAME    = ATLAS CENTAUR 2
OBJECT_ID      = 1963-047A
CENTER_NAME    = EARTH
REF_FRAME      = TEME
TIME_SYSTEM    = UTC
MEAN_ELEMENT_THEORY = SGP/SGP4

EPOCH          = 2026-04-03T03:30:51.298848
MEAN_MOTION    = 14.12178510
ECCENTRICITY   = .05471972
INCLINATION    = 30.3579
RA_OF_ASC_NODE = 58.9541
ARG_OF_PERICENTER = 295.8372
MEAN_ANOMALY   = 58.6783

EPHEMERIS_TYPE = 0
CLASSIFICATION_TYPE = U
NORAD_CAT_ID   = 694
ELEMENT_SET_NO = 999
REV_AT_EPOCH   = 13508
BSTAR          = .50259124E-3
MEAN_MOTION_DOT = .4212E-4
MEAN_MOTION_DDOT = 0

CCSDS_OMM_VERS = 2.0
CREATION_DATE  = 
ORIGINATOR     = 

OBJECT_NAME    = THOR AGENA D R/B
OBJECT_ID      = 1964-002A
CENTER_NAME    = EARTH
REF_FRAME      = TEME
TIME_SYSTEM    = UTC
MEAN_ELEMENT_THEORY = SGP/SGP4

EPOCH          = 2026-04-03T06:59:58.972128
MEAN_MOTION    = 14.34033972
ECCENTRICITY   = .00328436
INCLINATION    = 99.1210
RA_OF_ASC_NODE = 107.9694
ARG_OF_PERICENTER = 185.1324
MEAN_ANOMALY   = 174.9526

EPHEMERIS_TYPE = 0
CLASSIFICATION_TYPE = U
NORAD_CAT_ID   = 733
ELEMENT_SET_NO = 999
REV_AT_EPOCH   = 24182
BSTAR          = .13469296E-3
MEAN_MOTION_DOT = .33E-5
MEAN_MOTION_DDOT = 0

CCSDS_OMM_VERS = 2.0
CREATION_DATE  = 
ORIGINATOR     = 

OBJECT_NAME    = SL-3 R/B
OBJECT_ID      = 1964-053B
CENTER_NAME    = EARTH
REF_FRAME      = TEME
TIME_SYSTEM    = UTC
MEAN_ELEMENT_THEORY = SGP/SGP4

EPOCH          = 2026-04-03T04:35:18.058272
MEAN_MOTION    = 14.61386657
ECCENTRICITY   = .00805785
INCLINATION    = 65.0756
RA_OF_ASC_NODE = 259.4003
ARG_OF_PERICENTER = 284.5185
MEAN_ANOMALY   = 74.6986

EPHEMERIS_TYPE = 0
CLASSIFICATION_TYPE = U
NORAD_CAT_ID   = 877
ELEMENT_SET_NO = 999
REV_AT_EPOCH   = 27037
BSTAR          = .11282985E-3
MEAN_MOTION_DOT = .459E-5
MEAN_MOTION_DDOT = 0

CCSDS_OMM_VERS = 2.0
CREATION_DATE  = 
ORIGINATOR     = 

OBJECT_NAME    = SL-8 R/B
OBJECT_ID      = 1967-045B
CENTER_NAME    = EARTH
REF_FRAME      = TEME
TIME_SYSTEM    = UTC
MEAN_ELEMENT_THEORY = SGP/SGP4

EPOCH          = 2026-04-03T06:43:11.716608
MEAN_MOTION    = 14.45642641
ECCENTRICITY   = .00650106
INCLINATION    = 74.0103
RA_OF_ASC_NODE = 302.1655
ARG_OF_PERICENTER = 303.0361
MEAN_ANOMALY   = 56.4561

EPHEMERIS_TYPE = 0
CLASSIFICATION_TYPE = U
NORAD_CAT_ID   = 2802
ELEMENT_SET_NO = 999
REV_AT_EPOCH   = 9257
BSTAR          = .13939876E-3
MEAN_MOTION_DOT = .477E-5
MEAN_MOTION_DDOT = 0

CCSDS_OMM_VERS = 2.0
CREATION_DATE  = 
ORIGINATOR     = 

OBJECT_NAME    = SL-8 R/B
OBJECT_ID      = 1968-040B
CENTER_NAME    = EARTH
REF_FRAME      = TEME
TIME_SYSTEM    = UTC
MEAN_ELEMENT_THEORY = SGP/SGP4

EPOCH          = 2026-04-02T22:23:16.774656
MEAN_MOTION    = 15.03432060
ECCENTRICITY   = .00233584
INCLINATION    = 74.0288
RA_OF_ASC_NODE = 264.1470
ARG_OF_PERICENTER = 78.0647
MEAN_ANOMALY   = 282.3159

EPHEMERIS_TYPE = 0
CLASSIFICATION_TYPE = U
NORAD_CAT_ID   = 3230
ELEMENT_SET_NO = 999
REV_AT_EPOCH   = 9365
BSTAR          = .43587779E-3
MEAN_MOTION_DOT = .5931E-4
MEAN_MOTION_DDOT = 0

CCSDS_OMM_VERS = 2.0
CREATION_DATE  = 
ORIGINATOR     = 

OBJECT_NAME    = OAO 2
OBJECT_ID      = 1968-110A
CENTER_NAME    = EARTH
REF_FRAME      = TEME
TIME_SYSTEM    = UTC
MEAN_ELEMENT_THEORY = SGP/SGP4

EPOCH          = 2026-04-03T04:54:34.479936
MEAN_MOTION    = 14.47322613
ECCENTRICITY   = .00052706
INCLINATION    = 34.9922
RA_OF_ASC_NODE = 128.3459
ARG_OF_PERICENTER = 29.0054
MEAN_ANOMALY   = 331.0929

EPHEMERIS_TYPE = 0
CLASSIFICATION_TYPE = U
NORAD_CAT_ID   = 3597
ELEMENT_SET_NO = 999
REV_AT_EPOCH   = 2265
BSTAR          = .11394889E-3
MEAN_MOTION_DOT = .404E-5
MEAN_MOTION_DDOT = 0

CCSDS_OMM_VERS = 2.0
CREATION_DATE  = 
ORIGINATOR     = 

OBJECT_NAME    = ISIS 1
OBJECT_ID      = 1969-009A
CENTER_NAME    = EARTH
REF_FRAME      = TEME
TIME_SYSTEM    = UTC
MEAN_ELEMENT_THEORY = SGP/SGP4

EPOCH          = 2026-04-03T03:29:56.908320
MEAN_MOTION    = 11.30420686
ECCENTRICITY   = .17078008
INCLINATION    = 88.4495
RA_OF_ASC_NODE = 152.6385
ARG_OF_PERICENTER = 39.8277
MEAN_ANOMALY   = 331.6329

EPHEMERIS_TYPE = 0
CLASSIFICATION_TYPE = U
NORAD_CAT_ID   = 3669
ELEMENT_SET_NO = 999
REV_AT_EPOCH   = 35129
BSTAR          = .13063002E-3
MEAN_MOTION_DOT = .2E-5
MEAN_MOTION_DDOT = 0

CCSDS_OMM_VERS = 2.0
CREATION_DATE  = 
ORIGINATOR     = 

OBJECT_NAME    = SERT 2
OBJECT_ID      = 1970-009A
CENTER_NAME    = EARTH
REF_FRAME      = TEME
TIME_SYSTEM    = UTC
MEAN_ELEMENT_THEORY = SGP/SGP4

EPOCH          = 2026-04-03T07:29:05.050464
MEAN_MOTION    = 13.58732309
ECCENTRICITY   = .00057406
INCLINATION    = 99.2794
RA_OF_ASC_NODE = 35.0625
ARG_OF_PERICENTER = 99.6098
MEAN_ANOMALY   = 53.1786

EPHEMERIS_TYPE = 0
CLASSIFICATION_TYPE = U
NORAD_CAT_ID   = 4327
ELEMENT_SET_NO = 999
REV_AT_EPOCH   = 78323
BSTAR          = .96811283E-4
MEAN_MOTION_DOT = .29E-6
MEAN_MOTION_DDOT = 0

CCSDS_OMM_VERS = 2.0
CREATION_DATE  = 
ORIGINATOR     = 

OBJECT_NAME    = SL-3 R/B
OBJECT_ID      = 1971-028B
CENTER_NAME    = EARTH
REF_FRAME      = TEME
TIME_SYSTEM    = UTC
MEAN_ELEMENT_THEORY = SGP/SGP4

EPOCH          = 2026-04-03T06:03:33.100416
MEAN_MOTION    = 15.63437473
ECCENTRICITY   = .00152195
INCLINATION    = 81.2385
RA_OF_ASC_NODE = 21.6462
ARG_OF_PERICENTER = 185.4454
MEAN_ANOMALY   = 174.6638

EPHEMERIS_TYPE = 0
CLASSIFICATION_TYPE = U
NORAD_CAT_ID   = 5118
ELEMENT_SET_NO = 999
REV_AT_EPOCH   = 99250
BSTAR          = .67403278E-3
MEAN_MOTION_DOT = .62892E-3
MEAN_MOTION_DDOT = 0

CCSDS_OMM_VERS = 2.0
CREATION_DATE  = 
ORIGINATOR     = 

OBJECT_NAME    = ASTEX 1
OBJECT_ID      = 1971-089A
CENTER_NAME    = EARTH
REF_FRAME      = TEME
TIME_SYSTEM    = UTC
MEAN_ELEMENT_THEORY = SGP/SGP4

EPOCH          = 2026-04-03T05:43:42.953376
MEAN_MOTION    = 14.50796481
ECCENTRICITY   = .00157166
INCLINATION    = 92.7084
RA_OF_ASC_NODE = 159.6930
ARG_OF_PERICENTER = 10.5334
MEAN_ANOMALY   = 349.6198

EPHEMERIS_TYPE = 0
CLASSIFICATION_TYPE = U
NORAD_CAT_ID   = 5560
ELEMENT_SET_NO = 999
REV_AT_EPOCH   = 86586
BSTAR          = .20126337E-3
MEAN_MOTION_DOT = .792E-5
MEAN_MOTION_DDOT = 0

CCSDS_OMM_VERS = 2.0
CREATION_DATE  = 
ORIGINATOR     = 

OBJECT_NAME    = SL-8 R/B
OBJECT_ID      = 1971-119B
CENTER_NAME    = EARTH
REF_FRAME      = TEME
TIME_SYSTEM    = UTC
MEAN_ELEMENT_THEORY = SGP/SGP4

EPOCH          = 2026-04-03T05:07:56.801568
MEAN_MOTION    = 14.38324637
ECCENTRICITY   = .05460539
INCLINATION    = 73.8842
RA_OF_ASC_NODE = 129.8635
ARG_OF_PERICENTER = 91.2976
MEAN_ANOMALY   = 275.0765

EPHEMERIS_TYPE = 0
CLASSIFICATION_TYPE = U
NORAD_CAT_ID   = 5730
ELEMENT_SET_NO = 999
REV_AT_EPOCH   = 65901
BSTAR          = .61471103E-3
MEAN_MOTION_DOT = .11773E-3
MEAN_MOTION_DDOT = 0

CCSDS_OMM_VERS = 2.0
CREATION_DATE  = 
ORIGINATOR     = 

OBJECT_NAME    = OAO 3 (COPERNICUS)
OBJECT_ID      = 1972-065A
CENTER_NAME    = EARTH
REF_FRAME      = TEME
TIME_SYSTEM    = UTC
MEAN_ELEMENT_THEORY = SGP/SGP4

EPOCH          = 2026-04-03T06:51:27.596448
MEAN_MOTION    = 14.60018802
ECCENTRICITY   = .00066847
INCLINATION    = 35.0046
RA_OF_ASC_NODE = 157.1774
ARG_OF_PERICENTER = 356.6841
MEAN_ANOMALY   = 59.2425

EPHEMERIS_TYPE = 0
CLASSIFICATION_TYPE = U
NORAD_CAT_ID   = 6153
ELEMENT_SET_NO = 999
REV_AT_EPOCH   = 84979
BSTAR          = .11550071E-3
MEAN_MOTION_DOT = .542E-5
MEAN_MOTION_DDOT = 0

