ATLAS CENTAUR 2         
1 00694U 63047A   26093.14642707  .00004212  00000+0  50259-3 0  9992
2 00694  30.3579  58.9541 0547197 295.8372  58.6783 14.12178510135083
THOR AGENA D R/B        
1 00733U 64002A   26093.29165477  .00000330  00000+0  13469-3 0  9997
2 00733  99.1210 107.9694 0032843 185.1324 174.9526 14.34033972241824
SL-3 R/B                
1 00877U 64053B   26093.19118123  .00000459  00000+0  11283-3 0  9991
2 00877  65.0756 259.4003 0080578 284.5185  74.6986 14.61386657270373
SL-8 R/B                
1 02802U 67045B   26093.27999672  .00000477  00000+0  13940-3 0  9992
2 02802  74.0103 302.1655 0065010 303.0361  56.4561 14.45642641 92576
SL-8 R/B                
1 03230U 68040B   26092.93283304  .00005931  00000+0  43588-3 0  9995
2 03230  74.0288 264.1470 0023358  78.0647 282.3159 15.03432060 93653
OAO 2                   
1 03597U 68110A   26093.20456574  .00000404  00000+0  11395-3 0  9992
2 03597  34.9922 128.3459 0005270  29.0054 331.0929 14.47322613 22656
ISIS 1                  
1 03669U 69009A   26093.14579755  .00000200  00000+0  13063-3 0  9998
2 03669  88.4495 152.6385 1707800  39.8277 331.6329 11.30420686351291
SERT 2                  
1 04327U 70009A   26093.31186401  .00000029  00000+0  96811-4 0  9995
2 04327  99.2794  35.0625 0005740  99.6098  53.1786 13.58732309783230
SL-3 R/B                
1 05118U 71028B   26093.25246644  .00062892  00000+0  67403-3 0  9995
2 05118  81.2385  21.6462 0015219 185.4454 174.6638 15.63437473992507
ASTEX 1                 
1 05560U 71089A   26093.23869159  .00000792  00000+0  20126-3 0  9995
2 05560  92.7084 159.6930 0015716  10.5334 349.6198 14.50796481865865
SL-8 R/B                
1 05730U 71119B   26093.21385187  .00011773  00000+0  61471-3 0  9999
2 05730  73.8842 129.8635 0546053  91.2976 275.0765 14.38324637659014
OAO 3 (COPERNICUS)      
1 06153U 72065A   26093.28573607  .00000542  00000+0  11550-3 0  9998
2 06153  35.0046 157.1774 0006684 356.6841  59.2425 14.60018802849798
